<?xml version="1.0" encoding="UTF-8"?>
<kml xmlns="http://www.opengis.net/kml/2.2">
  <Document>
    <name>台中西屯 7-11 BEAMS DESIGN</name>
    <Placemark>
      <name>7-11 原義（BEAMS DESIGN）</name>
      <description><![CDATA[台中市西屯區忠義街80號<br/>店號 265421<br/>(04)23173966<br/>24H<br/>BEAMS DESIGN]]></description>
      <Point><coordinates>120.659515,24.161487,0</coordinates></Point>
    </Placemark>
    <Placemark>
      <name>7-11 墩十九（BEAMS DESIGN）</name>
      <description><![CDATA[台中市西屯區大墩19街186號<br/>店號 265270<br/>(04)23102205<br/>24H<br/>BEAMS DESIGN]]></description>
      <Point><coordinates>120.649828,24.159857,0</coordinates></Point>
    </Placemark>
    <Placemark>
      <name>7-11 夏督（BEAMS DESIGN）</name>
      <description><![CDATA[台中市西屯區寧夏路170號<br/>店號 229377<br/>(04)23168687<br/>24H<br/>BEAMS DESIGN]]></description>
      <Point><coordinates>120.661228,24.167314,0</coordinates></Point>
    </Placemark>
    <Placemark>
      <name>7-11 宇順（BEAMS DESIGN）</name>
      <description><![CDATA[台中市西屯區福安路51號<br/>店號 233055<br/>(04)24631947<br/>24H<br/>BEAMS DESIGN]]></description>
      <Point><coordinates>120.622514,24.181277,0</coordinates></Point>
    </Placemark>
    <Placemark>
      <name>7-11 寧夏（BEAMS DESIGN）</name>
      <description><![CDATA[台中市西屯區寧夏路105號<br/>店號 264831<br/>(04)23178934<br/>24H<br/>BEAMS DESIGN]]></description>
      <Point><coordinates>120.661342,24.166544,0</coordinates></Point>
    </Placemark>
    <Placemark>
      <name>7-11 寶慶（BEAMS DESIGN）</name>
      <description><![CDATA[台中市西屯區逢甲里西屯路二段256巷8、10號1樓<br/>店號 112190<br/>(04)24529273<br/>24H<br/>BEAMS DESIGN]]></description>
      <Point><coordinates>120.647366,24.170958,0</coordinates></Point>
    </Placemark>
    <Placemark>
      <name>7-11 小滿（BEAMS DESIGN）</name>
      <description><![CDATA[台中市西屯區中工三路220之20號<br/>店號 233734<br/>(04)23588272<br/>24H<br/>BEAMS DESIGN]]></description>
      <Point><coordinates>120.617211,24.17487,0</coordinates></Point>
    </Placemark>
    <Placemark>
      <name>7-11 尚仁（BEAMS DESIGN）</name>
      <description><![CDATA[台中市西屯區上仁街139號<br/>店號 120168<br/>(04)24527497<br/>24H<br/>BEAMS DESIGN]]></description>
      <Point><coordinates>120.6419,24.171687,0</coordinates></Point>
    </Placemark>
    <Placemark>
      <name>7-11 廣環（BEAMS DESIGN）</name>
      <description><![CDATA[台中市西屯區環中路二段698號<br/>店號 199289<br/>(04)24524421<br/>24H<br/>BEAMS DESIGN]]></description>
      <Point><coordinates>120.644256,24.195164,0</coordinates></Point>
    </Placemark>
    <Placemark>
      <name>7-11 成科（BEAMS DESIGN）</name>
      <description><![CDATA[台中市西屯區成都路221、223號<br/>店號 230779<br/>(04)23162846<br/>24H<br/>BEAMS DESIGN]]></description>
      <Point><coordinates>120.664737,24.169233,0</coordinates></Point>
    </Placemark>
    <Placemark>
      <name>7-11 望景（BEAMS DESIGN）</name>
      <description><![CDATA[台中市西屯區科園三路1號1樓之1<br/>店號 229193<br/>(04)24638230<br/>06:00 ~ 23:59<br/>BEAMS DESIGN]]></description>
      <Point><coordinates>120.603518,24.205388,0</coordinates></Point>
    </Placemark>
    <Placemark>
      <name>7-11 東儷（BEAMS DESIGN）</name>
      <description><![CDATA[台中市西屯區臺灣大道四段1727號<br/>店號 261773<br/>(04)23590457<br/>07:00 ~ 23:00<br/>BEAMS DESIGN]]></description>
      <Point><coordinates>120.601251,24.177949,0</coordinates></Point>
    </Placemark>
    <Placemark>
      <name>7-11 正勤（BEAMS DESIGN）</name>
      <description><![CDATA[台中市西屯區黎明路三段539-3號.539-5號<br/>店號 273743<br/>(04)24524657<br/>24H<br/>BEAMS DESIGN]]></description>
      <Point><coordinates>120.640091,24.186368,0</coordinates></Point>
    </Placemark>
    <Placemark>
      <name>7-11 水湳（BEAMS DESIGN）</name>
      <description><![CDATA[台中市西屯區中清西二街139-1號<br/>店號 269168<br/>(04)22957458<br/>24H<br/>BEAMS DESIGN]]></description>
      <Point><coordinates>120.664869,24.175706,0</coordinates></Point>
    </Placemark>
    <Placemark>
      <name>7-11 港強（BEAMS DESIGN）</name>
      <description><![CDATA[台中市西屯區福科路295號一樓<br/>店號 113001<br/>(04)24632861<br/>24H<br/>BEAMS DESIGN]]></description>
      <Point><coordinates>120.624704,24.181942,0</coordinates></Point>
    </Placemark>
    <Placemark>
      <name>7-11 漢口（BEAMS DESIGN）</name>
      <description><![CDATA[台中市西屯區漢口路一段22.24號1樓<br/>店號 231934<br/>(04)23168186<br/>24H<br/>BEAMS DESIGN]]></description>
      <Point><coordinates>120.656511,24.160151,0</coordinates></Point>
    </Placemark>
    <Placemark>
      <name>7-11 甘肅（BEAMS DESIGN）</name>
      <description><![CDATA[台中市西屯區甘肅路二段22號<br/>店號 128553<br/>(04)23152941<br/>24H<br/>BEAMS DESIGN]]></description>
      <Point><coordinates>120.656089,24.170386,0</coordinates></Point>
    </Placemark>
    <Placemark>
      <name>7-11 百惠（BEAMS DESIGN）</name>
      <description><![CDATA[台中市西屯區台灣大道三段182號1.2樓<br/>店號 262639<br/>(04)23120872<br/>24H<br/>BEAMS DESIGN]]></description>
      <Point><coordinates>120.646281,24.164784,0</coordinates></Point>
    </Placemark>
    <Placemark>
      <name>7-11 福星（BEAMS DESIGN）</name>
      <description><![CDATA[台中市西屯區福星路580號<br/>店號 253299<br/>(04)24519553<br/>24H<br/>BEAMS DESIGN]]></description>
      <Point><coordinates>120.646446,24.174995,0</coordinates></Point>
    </Placemark>
    <Placemark>
      <name>7-11 福雅（BEAMS DESIGN）</name>
      <description><![CDATA[台中市西屯區福雅路338號<br/>店號 249809<br/>(04)24639859<br/>24H<br/>BEAMS DESIGN]]></description>
      <Point><coordinates>120.624243,24.194005,0</coordinates></Point>
    </Placemark>
    <Placemark>
      <name>7-11 秋紅谷（BEAMS DESIGN）</name>
      <description><![CDATA[台中市西屯區朝富路30號32號1樓<br/>店號 281593<br/>(04)22542731<br/>24H<br/>BEAMS DESIGN]]></description>
      <Point><coordinates>120.637843,24.167246,0</coordinates></Point>
    </Placemark>
    <Placemark>
      <name>7-11 科雅（BEAMS DESIGN）</name>
      <description><![CDATA[台中市西屯區福雅路571-1號<br/>店號 249795<br/>(04)24636793<br/>24H<br/>BEAMS DESIGN]]></description>
      <Point><coordinates>120.626947,24.200743,0</coordinates></Point>
    </Placemark>
    <Placemark>
      <name>7-11 航發（BEAMS DESIGN）</name>
      <description><![CDATA[台中市西屯區河南路二段242號<br/>店號 274274<br/>(04)24526841<br/>24H<br/>BEAMS DESIGN]]></description>
      <Point><coordinates>120.650953,24.176215,0</coordinates></Point>
    </Placemark>
    <Placemark>
      <name>7-11 華美（BEAMS DESIGN）</name>
      <description><![CDATA[台中市西屯區西屯路二段19號19之1號21號<br/>店號 275417<br/>(04)23143424<br/>24H<br/>BEAMS DESIGN]]></description>
      <Point><coordinates>120.661328,24.163806,0</coordinates></Point>
    </Placemark>
    <Placemark>
      <name>7-11 裕元（BEAMS DESIGN）</name>
      <description><![CDATA[台中市西屯區安和路168號<br/>店號 236630<br/>(04)24638940<br/>24H<br/>BEAMS DESIGN]]></description>
      <Point><coordinates>120.625112,24.180509,0</coordinates></Point>
    </Placemark>
    <Placemark>
      <name>7-11 豐慶（BEAMS DESIGN）</name>
      <description><![CDATA[台中市西屯區甘肅路一段196號及198號1樓<br/>店號 993498<br/>(04)23164548<br/>24H<br/>BEAMS DESIGN]]></description>
      <Point><coordinates>120.657497,24.168242,0</coordinates></Point>
    </Placemark>
    <Placemark>
      <name>7-11 逢善（BEAMS DESIGN）</name>
      <description><![CDATA[台中市西屯區逢甲路132、134號<br/>店號 258917<br/>(04)24523490<br/>24H<br/>BEAMS DESIGN]]></description>
      <Point><coordinates>120.643123,24.178396,0</coordinates></Point>
    </Placemark>
    <Placemark>
      <name>7-11 逢廣（BEAMS DESIGN）</name>
      <description><![CDATA[台中市西屯區文華路170號172號1樓<br/>店號 128690<br/>(04)24528846<br/>24H<br/>BEAMS DESIGN]]></description>
      <Point><coordinates>120.646367,24.183628,0</coordinates></Point>
    </Placemark>
    <Placemark>
      <name>7-11 逢德（BEAMS DESIGN）</name>
      <description><![CDATA[台中市西屯區青海路二段321號323號<br/>店號 236674<br/>(04)24518827<br/>24H<br/>BEAMS DESIGN]]></description>
      <Point><coordinates>120.640902,24.173525,0</coordinates></Point>
    </Placemark>
    <Placemark>
      <name>7-11 逢盛（BEAMS DESIGN）</name>
      <description><![CDATA[台中市西屯區福星路330號華夏巷東一弄22號1樓<br/>店號 957931<br/>(04)27064895<br/>24H<br/>BEAMS DESIGN]]></description>
      <Point><coordinates>120.644902,24.180725,0</coordinates></Point>
    </Placemark>
    <Placemark>
      <name>7-11 逢科（BEAMS DESIGN）</name>
      <description><![CDATA[台中市西屯區青海路二段556號<br/>店號 274838<br/>(04)24520126<br/>24H<br/>BEAMS DESIGN]]></description>
      <Point><coordinates>120.635916,24.176258,0</coordinates></Point>
    </Placemark>
    <Placemark>
      <name>7-11 金西屯（BEAMS DESIGN）</name>
      <description><![CDATA[台中市西屯區西屯路三段79-33號<br/>店號 251156<br/>(04)24521479<br/>24H<br/>BEAMS DESIGN]]></description>
      <Point><coordinates>120.630119,24.18337,0</coordinates></Point>
    </Placemark>
    <Placemark>
      <name>7-11 順和（BEAMS DESIGN）</name>
      <description><![CDATA[台中市西屯區工業區三十八路135號<br/>店號 232915<br/>(04)23502995<br/>24H<br/>BEAMS DESIGN]]></description>
      <Point><coordinates>120.588055,24.176417,0</coordinates></Point>
    </Placemark>
  </Document>
</kml>
